{"fetched_at":"2026-03-29T02:12:04Z","count":15717,"tles":[{"name":"2024-174C","line1":"1 61240U 24174C   26085.32487789 -.00000049  00000+0  91664-6 0  9995","line2":"2 61240  97.4458  94.4991 0007688 171.0233 189.1140 15.19491001 83101","category":"Other"}]}